FENGYUN 1C DEB          
1 30677U 99025AQK 17345.92335064  .00000558  00000-0  25534-3 0  9990
2 30677  98.2908 127.9575 0079714 180.0333 305.7079 14.23365118562900
